<?xml version="1.0" encoding="UTF-8"?>
<kml xmlns="http://www.opengis.net/kml/2.2" xmlns:gx="http://www.google.com/kml/ext/2.2" xmlns:kml="http://www.opengis.net/kml/2.2" xmlns:atom="http://www.w3.org/2005/Atom">
<Document>
	<name>subestaciones.kml</name>
    <Style id="downArrowIcon">
        <IconStyle>
            <Icon>
                <href>http://maps.google.com/mapfiles/kml/pal4/icon28.png</href>
            </Icon>
        </IconStyle>
    </Style>
	<Folder>
		<name>SE</name>
		<open>1</open>
		<Placemark>
			<name>S.E. ARAGON</name>
			<LookAt>
				<longitude>-99.09773084229397</longitude>
				<latitude>19.46162939335208</latitude>
				<altitude>0</altitude>
				<heading>-0.07923219374364766</heading>
				<tilt>0</tilt>
				<range>439.4596136661877</range>
				<gx:altitudeMode>relativeToSeaFloor</gx:altitudeMode>
			</LookAt>
			<styleUrl>#msn_triangle27</styleUrl>
			<Point>
				<coordinates>-99.09801922241647,19.46194445461326,0</coordinates>
			</Point>
		</Placemark>
		<Placemark>
			<name>S.E. ATIZAPAN</name>
			<LookAt>
				<longitude>-99.25701154985727</longitude>
				<latitude>19.56194449722769</latitude>
				<altitude>0</altitude>
				<heading>-0.1368344062329392</heading>
				<tilt>0</tilt>
				<range>963.7771604832496</range>
				<gx:altitudeMode>relativeToSeaFloor</gx:altitudeMode>
			</LookAt>
			<styleUrl>#msn_triangle27</styleUrl>
			<Point>
				<coordinates>-99.25691142530744,19.56110114753708,0</coordinates>
			</Point>
		</Placemark>
		<Placemark>
			<name>S.E. AZCAPOZALCO</name>
			<LookAt>
				<longitude>-99.214328093278</longitude>
				<latitude>19.48440729193112</latitude>
				<altitude>0</altitude>
				<heading>-0.1225875004019236</heading>
				<tilt>0</tilt>
				<range>744.2277634702743</range>
				<gx:altitudeMode>relativeToSeaFloor</gx:altitudeMode>
			</LookAt>
			<styleUrl>#msn_triangle27</styleUrl>
			<Point>
				<coordinates>-99.21425896397389,19.48426149975455,0</coordinates>
			</Point>
		</Placemark>
		<Placemark>
			<name>S.E. AZTECA</name>
			<LookAt>
				<longitude>-99.05989788437837</longitude>
				<latitude>19.52517600461657</latitude>
				<altitude>0</altitude>
				<heading>-0.07102094333327043</heading>
				<tilt>0</tilt>
				<range>702.3695502447226</range>
				<gx:altitudeMode>relativeToSeaFloor</gx:altitudeMode>
			</LookAt>
			<styleUrl>#msn_triangle27</styleUrl>
			<Point>
				<coordinates>-99.06022353096675,19.5259069940118,0</coordinates>
			</Point>
		</Placemark>
		<Placemark>
			<name>S.E. CATARGENA</name>
			<LookAt>
				<longitude>-99.15334519464632</longitude>
				<latitude>19.63860320190377</latitude>
				<altitude>0</altitude>
				<heading>-0.1026364216021657</heading>
				<tilt>0</tilt>
				<range>595.6370320446746</range>
				<gx:altitudeMode>relativeToSeaFloor</gx:altitudeMode>
			</LookAt>
			<styleUrl>#msn_triangle27</styleUrl>
			<Point>
				<coordinates>-99.15401444077659,19.63816495464514,0</coordinates>
			</Point>
		</Placemark>
		<Placemark>
			<name>S.E. CAREAGA</name>
			<LookAt>
				<longitude>-99.21210709576333</longitude>
				<latitude>19.50041782531337</latitude>
				<altitude>0</altitude>
				<heading>-0.1173314819481739</heading>
				<tilt>0</tilt>
				<range>1759.660344793811</range>
				<gx:altitudeMode>relativeToSeaFloor</gx:altitudeMode>
			</LookAt>
			<styleUrl>#msn_triangle27</styleUrl>
			<Point>
				<coordinates>-99.2129400229427,19.50192665040428,0</coordinates>
			</Point>
		</Placemark>
		<Placemark>
			<name>S.E. CAFRADIAS</name>
			<LookAt>
				<longitude>-99.22339740376792</longitude>
				<latitude>19.62086250928152</latitude>
				<altitude>0</altitude>
				<heading>-0.1261572028698477</heading>
				<tilt>0</tilt>
				<range>339.8951433220437</range>
				<gx:altitudeMode>relativeToSeaFloor</gx:altitudeMode>
			</LookAt>
			<styleUrl>#msn_triangle27</styleUrl>
			<Point>
				<coordinates>-99.22340410465507,19.62104150555468,0</coordinates>
			</Point>
		</Placemark>
		<Placemark>
			<name>S.E. CAFRADIAS FIJA</name>
			<LookAt>
				<longitude>-99.21836092723633</longitude>
				<latitude>19.62550474407301</latitude>
				<altitude>0</altitude>
				<heading>-0.1244657846131906</heading>
				<tilt>0</tilt>
				<range>300.7684791657246</range>
				<gx:altitudeMode>relativeToSeaFloor</gx:altitudeMode>
			</LookAt>
			<styleUrl>#msn_triangle27</styleUrl>
			<Point>
				<coordinates>-99.21845551705691,19.62565467458355,0</coordinates>
			</Point>
		</Placemark>
		<Placemark>
			<name>S.E. CEYLAN</name>
			<LookAt>
				<longitude>-99.18444929800138</longitude>
				<latitude>19.55334116491606</latitude>
				<altitude>0</altitude>
				<heading>-0.1120677922183623</heading>
				<tilt>0</tilt>
				<range>464.3324883325597</range>
				<gx:altitudeMode>relativeToSeaFloor</gx:altitudeMode>
			</LookAt>
			<styleUrl>#msn_triangle27</styleUrl>
			<Point>
				<coordinates>-99.18406739069344,19.55319843075442,0</coordinates>
			</Point>
		</Placemark>
		<Placemark>
			<name>S.E. CERRO GORDO</name>
			<LookAt>
				<longitude>-99.05822391239579</longitude>
				<latitude>19.55418139206901</latitude>
				<altitude>0</altitude>
				<heading>-0.07046208750428476</heading>
				<tilt>0</tilt>
				<range>1001.785157561802</range>
				<gx:altitudeMode>relativeToSeaFloor</gx:altitudeMode>
			</LookAt>
			<styleUrl>#msn_triangle27</styleUrl>
			<Point>
				<coordinates>-99.05849324003609,19.55545525318041,0</coordinates>
			</Point>
		</Placemark>
		<Placemark>
			<name>S.E. COYOTEPEC</name>
			<LookAt>
				<longitude>-99.21732093859706</longitude>
				<latitude>19.76339302957572</latitude>
				<altitude>0</altitude>
				<heading>-0.1247650063460378</heading>
				<tilt>0</tilt>
				<range>245.5044655845165</range>
				<gx:altitudeMode>relativeToSeaFloor</gx:altitudeMode>
			</LookAt>
			<styleUrl>#msn_triangle27</styleUrl>
			<Point>
				<coordinates>-99.21732093859707,19.76339302957572,0</coordinates>
			</Point>
		</Placemark>
		<Placemark>
			<name>S.E. CUAUHTITLAN</name>
			<LookAt>
				<longitude>-99.18688519872656</longitude>
				<latitude>19.68181039318871</latitude>
				<altitude>0</altitude>
				<heading>-0.1143225464803324</heading>
				<tilt>0</tilt>
				<range>508.1035368190251</range>
				<gx:altitudeMode>relativeToSeaFloor</gx:altitudeMode>
			</LookAt>
			<styleUrl>#msn_triangle27</styleUrl>
			<Point>
				<coordinates>-99.18753782315822,19.68204549975782,0</coordinates>
			</Point>
		</Placemark>
		<Placemark>
			<name>S.E. EL VIDRIO</name>
			<LookAt>
				<longitude>-99.36589174242053</longitude>
				<latitude>19.63610365340031</latitude>
				<altitude>0</altitude>
				<heading>-0.1745559316715322</heading>
				<tilt>0</tilt>
				<range>512.1955018751374</range>
				<gx:altitudeMode>relativeToSeaFloor</gx:altitudeMode>
			</LookAt>
			<styleUrl>#msn_triangle27</styleUrl>
			<Point>
				<coordinates>-99.36669740554869,19.63584591985939,0</coordinates>
			</Point>
		</Placemark>
		<Placemark>
			<name>S.E. JOROBAS</name>
			<LookAt>
				<longitude>-99.27944297700714</longitude>
				<latitude>19.85561242516893</latitude>
				<altitude>0</altitude>
				<heading>-0.1458422991003342</heading>
				<tilt>0</tilt>
				<range>538.0155182491983</range>
				<gx:altitudeMode>relativeToSeaFloor</gx:altitudeMode>
			</LookAt>
			<styleUrl>#msn_triangle27</styleUrl>
			<Point>
				<coordinates>-99.2797724478025,19.85582957390345,0</coordinates>
			</Point>
		</Placemark>
		<Placemark>
			<name>S.E. LA LOMA</name>
			<LookAt>
				<longitude>-99.20944167054273</longitude>
				<latitude>19.53430241410755</latitude>
				<altitude>0</altitude>
				<heading>-0.1196412141208512</heading>
				<tilt>0</tilt>
				<range>773.756968502825</range>
				<gx:altitudeMode>relativeToSeaFloor</gx:altitudeMode>
			</LookAt>
			<styleUrl>#msn_triangle27</styleUrl>
			<Point>
				<coordinates>-99.20929110960114,19.5341375675474,0</coordinates>
			</Point>
		</Placemark>
		<Placemark>
			<name>S.E. LA QUEBRADA</name>
			<LookAt>
				<longitude>-99.18372210395842</longitude>
				<latitude>19.59866157901784</latitude>
				<altitude>0</altitude>
				<heading>-0.1114503247203256</heading>
				<tilt>0</tilt>
				<range>513.3969956327412</range>
				<gx:altitudeMode>relativeToSeaFloor</gx:altitudeMode>
			</LookAt>
			<styleUrl>#msn_triangle27</styleUrl>
			<Point>
				<coordinates>-99.18398799701367,19.59871697989474,0</coordinates>
			</Point>
		</Placemark>
		<Placemark>
			<name>S.E. TEPOZOTLAN</name>
			<LookAt>
				<longitude>-99.20422302619943</longitude>
				<latitude>19.69564699898281</latitude>
				<altitude>0</altitude>
				<heading>-0.1201630204731105</heading>
				<tilt>0</tilt>
				<range>514.4744830675388</range>
				<gx:altitudeMode>relativeToSeaFloor</gx:altitudeMode>
			</LookAt>
			<styleUrl>#msn_triangle27</styleUrl>
			<Point>
				<coordinates>-99.20511116570385,19.6957014303488,0</coordinates>
			</Point>
		</Placemark>
		<Placemark>
			<name>S.E. PUNTA NORTE</name>
			<LookAt>
				<longitude>-99.22991449542413</longitude>
				<latitude>19.615276294538</latitude>
				<altitude>0</altitude>
				<heading>-0.128345367904849</heading>
				<tilt>0</tilt>
				<range>264.8198240524462</range>
				<gx:altitudeMode>relativeToSeaFloor</gx:altitudeMode>
			</LookAt>
			<styleUrl>#msn_triangle27</styleUrl>
			<Point>
				<coordinates>-99.22990980421108,19.61535798887795,0</coordinates>
			</Point>
		</Placemark>
		<Placemark>
			<name>S.E. HUEHUETOCA</name>
			<LookAt>
				<longitude>-99.2294642899281</longitude>
				<latitude>19.82878882819098</latitude>
				<altitude>0</altitude>
				<heading>-0.1288783013437519</heading>
				<tilt>0</tilt>
				<range>352.8985382364233</range>
				<gx:altitudeMode>relativeToSeaFloor</gx:altitudeMode>
			</LookAt>
			<styleUrl>#msn_triangle27</styleUrl>
			<Point>
				<coordinates>-99.22969336420516,19.82837248912519,0</coordinates>
			</Point>
		</Placemark>
		<Placemark>
			<name>S.E. SOSA TEXCOCO</name>
			<LookAt>
				<longitude>-98.96780654292648</longitude>
				<latitude>19.61053635812018</latitude>
				<altitude>0</altitude>
				<heading>-0.04021192160442802</heading>
				<tilt>0</tilt>
				<range>322.7184564836983</range>
				<gx:altitudeMode>relativeToSeaFloor</gx:altitudeMode>
			</LookAt>
			<styleUrl>#msn_triangle27</styleUrl>
			<Point>
				<coordinates>-98.96797026396115,19.61054045590418,0</coordinates>
			</Point>
		</Placemark>
		<Placemark>
			<name>S.E. KILOMETRO 42</name>
			<LookAt>
				<longitude>-98.84267004230399</longitude>
				<latitude>19.67399886863213</latitude>
				<altitude>0</altitude>
				<heading>0.001639544660913246</heading>
				<tilt>0</tilt>
				<range>451.8190092670336</range>
				<gx:altitudeMode>relativeToSeaFloor</gx:altitudeMode>
			</LookAt>
			<styleUrl>#msn_triangle27</styleUrl>
			<Point>
				<coordinates>-98.84306209406523,19.67358456205237,0</coordinates>
			</Point>
		</Placemark>
		<Placemark>
			<name>S.E. PANTERA</name>
			<LookAt>
				<longitude>-99.15380336704085</longitude>
				<latitude>19.50261159203729</latitude>
				<altitude>0</altitude>
				<heading>-0.1023515053446553</heading>
				<tilt>0</tilt>
				<range>563.5867535549544</range>
				<gx:altitudeMode>relativeToSeaFloor</gx:altitudeMode>
			</LookAt>
			<styleUrl>#msn_triangle27</styleUrl>
			<Point>
				<coordinates>-99.15394358940848,19.50244699300399,0</coordinates>
			</Point>
		</Placemark>
		<Placemark>
			<name>S.E. INSURGENTES</name>
			<LookAt>
				<longitude>-99.13033376356201</longitude>
				<latitude>19.48055891892401</latitude>
				<altitude>0</altitude>
				<heading>-0.09451576491834081</heading>
				<tilt>0</tilt>
				<range>265.8481783657502</range>
				<gx:altitudeMode>relativeToSeaFloor</gx:altitudeMode>
			</LookAt>
			<styleUrl>#msn_triangle27</styleUrl>
			<Point>
				<coordinates>-99.13087998256296,19.48033174304072,0</coordinates>
			</Point>
		</Placemark>
		<Placemark>
			<name>S.E. GUADALUPE</name>
			<LookAt>
				<longitude>-99.11749855492972</longitude>
				<latitude>19.49658987564388</latitude>
				<altitude>0</altitude>
				<heading>-0.09023089159068966</heading>
				<tilt>0</tilt>
				<range>491.234178576654</range>
				<gx:altitudeMode>relativeToSeaFloor</gx:altitudeMode>
			</LookAt>
			<styleUrl>#msn_triangle27</styleUrl>
			<Point>
				<coordinates>-99.1176753560661,19.49636478085194,0</coordinates>
			</Point>
		</Placemark>
		<Placemark>
			<name>S.E. MADERO</name>
			<LookAt>
				<longitude>-99.05285439249023</longitude>
				<latitude>19.49575543965415</latitude>
				<altitude>0</altitude>
				<heading>-0.06866777855217926</heading>
				<tilt>0</tilt>
				<range>1224.465996510924</range>
				<gx:altitudeMode>relativeToSeaFloor</gx:altitudeMode>
			</LookAt>
			<styleUrl>#msn_triangle27</styleUrl>
			<Point>
				<coordinates>-99.05250365932584,19.49543092598618,0</coordinates>
			</Point>
		</Placemark>
		<Placemark>
			<name>S.E. VALLEJO</name>
			<LookAt>
				<longitude>-99.17529794887429</longitude>
				<latitude>19.51679578920854</latitude>
				<altitude>0</altitude>
				<heading>-0.109529415030088</heading>
				<tilt>0</tilt>
				<range>842.1648589842804</range>
				<gx:altitudeMode>relativeToSeaFloor</gx:altitudeMode>
			</LookAt>
			<styleUrl>#msn_triangle27</styleUrl>
			<Point>
				<coordinates>-99.1761379690229,19.51634291829065,0</coordinates>
			</Point>
		</Placemark>
		<Placemark>
			<name>S.E. LECHERIA</name>
			<LookAt>
				<longitude>-99.18561443348389</longitude>
				<latitude>19.61538880047749</latitude>
				<altitude>0</altitude>
				<heading>-0.113465067417116</heading>
				<tilt>0</tilt>
				<range>569.9503226761753</range>
				<gx:altitudeMode>relativeToSeaFloor</gx:altitudeMode>
			</LookAt>
			<styleUrl>#msn_triangle27</styleUrl>
			<Point>
				<coordinates>-99.18550358496667,19.61529718184994,0</coordinates>
			</Point>
		</Placemark>
		<Placemark>
			<name>S.E. ECATEPEC</name>
			<LookAt>
				<longitude>-99.05765421643865</longitude>
				<latitude>19.61096029561307</latitude>
				<altitude>0</altitude>
				<heading>-0.07035952410073</heading>
				<tilt>0</tilt>
				<range>347.0558397956293</range>
				<gx:altitudeMode>relativeToSeaFloor</gx:altitudeMode>
			</LookAt>
			<styleUrl>#msn_triangle27</styleUrl>
			<Point>
				<coordinates>-99.05730735685781,19.61063586570218,0</coordinates>
			</Point>
		</Placemark>
		<Placemark>
			<name>S.E. XALOSTOC</name>
			<LookAt>
				<longitude>-99.0891769612425</longitude>
				<latitude>19.51309222200547</latitude>
				<altitude>0</altitude>
				<heading>-0.08023812827837265</heading>
				<tilt>0</tilt>
				<range>404.8424089680606</range>
				<gx:altitudeMode>relativeToSeaFloor</gx:altitudeMode>
			</LookAt>
			<styleUrl>#msn_triangle27</styleUrl>
			<Point>
				<coordinates>-99.08960468717842,19.5131712058919,0</coordinates>
			</Point>
		</Placemark>
		<Placemark>
			<name>S.E. REMEDIOS</name>
			<LookAt>
				<longitude>-99.25284154531583</longitude>
				<latitude>19.48665222160011</latitude>
				<altitude>0</altitude>
				<heading>-0.1354349365395413</heading>
				<tilt>0</tilt>
				<range>826.1381085270095</range>
				<gx:altitudeMode>relativeToSeaFloor</gx:altitudeMode>
			</LookAt>
			<styleUrl>#msn_triangle27</styleUrl>
			<Point>
				<coordinates>-99.25261144447829,19.48620302713045,0</coordinates>
			</Point>
		</Placemark>
		<Placemark>
			<name>S.E. TECAMAC</name>
			<LookAt>
				<longitude>-99.01079846952798</longitude>
				<latitude>19.63158889998076</latitude>
				<altitude>0</altitude>
				<heading>-0.05464938017479393</heading>
				<tilt>0</tilt>
				<range>567.7476930408</range>
				<gx:altitudeMode>relativeToSeaFloor</gx:altitudeMode>
			</LookAt>
			<styleUrl>#msn_triangle27</styleUrl>
			<Point>
				<coordinates>-99.01115025891674,19.63153170254308,0</coordinates>
			</Point>
		</Placemark>
		<Placemark>
			<name>S.E. TECAMACHALCO</name>
			<LookAt>
				<longitude>-99.26808561996515</longitude>
				<latitude>19.4006138427284</latitude>
				<altitude>0</altitude>
				<heading>-0.138264987432191</heading>
				<tilt>0</tilt>
				<range>421.7931611273326</range>
				<gx:altitudeMode>relativeToSeaFloor</gx:altitudeMode>
			</LookAt>
			<styleUrl>#msn_triangle27</styleUrl>
			<Point>
				<coordinates>-99.26772874696456,19.40086107392702,0</coordinates>
			</Point>
		</Placemark>
		<Placemark>
			<name>S.E. NAUCALPAN</name>
			<LookAt>
				<longitude>-99.22815448919569</longitude>
				<latitude>19.46635691270005</latitude>
				<altitude>0</altitude>
				<heading>-0.1441316996580326</heading>
				<tilt>0</tilt>
				<range>670.0518460601943</range>
				<gx:altitudeMode>relativeToSeaFloor</gx:altitudeMode>
			</LookAt>
			<styleUrl>#msn_triangle27</styleUrl>
			<Point>
				<coordinates>-99.22838930421798,19.46635344244366,0</coordinates>
			</Point>
		</Placemark>
		<Placemark>
			<name>S.E. VALLE DE MEXICO</name>
			<LookAt>
				<longitude>-98.97676245255354</longitude>
				<latitude>19.61979214702828</latitude>
				<altitude>0</altitude>
				<heading>-0.04321844160744468</heading>
				<tilt>0</tilt>
				<range>743.7489125965011</range>
				<gx:altitudeMode>relativeToSeaFloor</gx:altitudeMode>
			</LookAt>
			<styleUrl>#msn_triangle27</styleUrl>
			<Point>
				<coordinates>-98.97676245255354,19.61979214702829,0</coordinates>
			</Point>
		</Placemark>
		<Placemark>
			<name>S.E. VICTORIA</name>
			<LookAt>
				<longitude>-99.18644383459333</longitude>
				<latitude>19.63648639647395</latitude>
				<altitude>0</altitude>
				<heading>-0.1137436745854465</heading>
				<tilt>0</tilt>
				<range>1047.110623902521</range>
				<gx:altitudeMode>relativeToSeaFloor</gx:altitudeMode>
			</LookAt>
			<styleUrl>#msn_triangle27</styleUrl>
			<Point>
				<coordinates>-99.1879668270451,19.63681686859813,0</coordinates>
			</Point>
		</Placemark>
		<Placemark>
			<name>S.E. VILLA DE LA FLORES</name>
			<LookAt>
				<longitude>-99.07838068455418</longitude>
				<latitude>19.67184718041358</latitude>
				<altitude>0</altitude>
				<heading>-0.07743946322204337</heading>
				<tilt>0</tilt>
				<range>329.4257561955773</range>
				<gx:altitudeMode>relativeToSeaFloor</gx:altitudeMode>
			</LookAt>
			<styleUrl>#msn_triangle27</styleUrl>
			<Point>
				<coordinates>-99.07838648885024,19.67164788523422,0</coordinates>
			</Point>
		</Placemark>
		<Placemark>
			<name>S.E. HUIXQUILUCAN</name>
			<LookAt>
				<longitude>-99.27183282092535</longitude>
				<latitude>19.45110291191157</latitude>
				<altitude>0</altitude>
				<heading>-0.1587224408692884</heading>
				<tilt>0</tilt>
				<range>823.2313660938302</range>
				<gx:altitudeMode>relativeToSeaFloor</gx:altitudeMode>
			</LookAt>
			<styleUrl>#msn_triangle27</styleUrl>
			<Point>
				<coordinates>-99.27194675704159,19.45058365798972,0</coordinates>
			</Point>
		</Placemark>
		<Placemark>
			<name>S.E. ZUMPANGO</name>
			<LookAt>
				<longitude>-99.11215271581075</longitude>
				<latitude>19.80901302137383</latitude>
				<altitude>0</altitude>
				<heading>-0.08898667596391381</heading>
				<tilt>0</tilt>
				<range>560.7199758996129</range>
				<gx:altitudeMode>relativeToSeaFloor</gx:altitudeMode>
			</LookAt>
			<styleUrl>#msn_triangle27</styleUrl>
			<Point>
				<coordinates>-99.11287681069498,19.80944527753191,0</coordinates>
			</Point>
		</Placemark>
	</Folder>
</Document>
</kml>
